ONEWEB-0395             
1 50475U 21132G   24185.94482831  .00000068  00000+0  15675-3 0  9999
2 50475  87.8968 163.0391 0001802  91.2812 268.8522 13.11415785122235
ONEWEB-0396             
1 50476U 21132H   24185.85243318  .00000006  00000+0 -18351-4 0  9993
2 50476  87.9152 117.4614 0002095  83.5464 276.5907 13.18686440127621
ONEWEB-0397             
1 50477U 21132J   24185.86664857  .00000055  00000+0  10675-3 0  9993
2 50477  87.9152 117.4599 0002305  82.6818 277.4576 13.18684102127604
ONEWEB-0398             
1 50478U 21132K   24185.91262904  .00000210  00000+0  55647-3 0  9998
2 50478  87.8964 163.0241 0001628  81.6572 278.4740 13.11418809122127
ONEWEB-0399             
1 50479U 21132L   24185.89903263 -.00000393  00000+0 -11440-2 0  9992
2 50479  87.8966 163.0443 0002346  91.1786 268.9610 13.11415839122114
ONEWEB-0400             
1 50480U 21132M   24185.84610698  .00000056  00000+0  10859-3 0  9994
2 50480  87.9149 117.4666 0001904  74.3317 285.8025 13.18687023127590
ONEWEB-0401             
1 50481U 21132N   24185.88879091  .00000028  00000+0  37635-4 0  9994
2 50481  87.9149 117.4553 0002364  80.5603 279.5796 13.18686121127609
ONEWEB-0402             
1 50482U 21132P   24185.85401515  .00000015  00000+0  57429-5 0  9994
2 50482  87.9147 117.4593 0002893  80.1066 280.0392 13.18691492127626
